ORBCOMM FM33            
1 25983U 99065D   25227.61642046  .00000664  00000+0  25332-3 0  9996
2 25983  45.0287  76.3894 0008599   5.6454 354.4491 14.40097821344633
ORBCOMM FM36            
1 25984U 99065E   25227.51990340  .00001024  00000+0  38028-3 0  9996
2 25984  45.0384 169.6926 0003899 273.2521  86.7882 14.38236029342965
ORBCOMM FM35            
1 25985U 99065F   25227.05573038  .00000934  00000+0  35842-3 0  9997
2 25985  45.0385 177.3952 0005746 325.3980  34.6494 14.37195574343255
ORBCOMM FM34            
1 25986U 99065G   25227.57708264  .00000782  00000+0  30749-3 0  9998
2 25986  45.0381 175.3860 0005676 294.1858  65.8397 14.37207272343445
ORBCOMM FM38            
1 33060U 08031A   25227.49977622  .00001655  00000+0  23591-3 0  9997
2 33060  48.4407  32.5456 0005284 290.7996  69.2353 14.81511105923545
ORBCOMM FM41            
1 33061U 08031B   25226.94201826  .00001526  00000+0  22177-3 0  9999
2 33061  48.4449  43.1872 0004552 273.8746 243.0320 14.81085741922945
ORBCOMM FM29            
1 33062U 08031C   25227.50526380  .00001512  00000+0  21954-3 0  9995
2 33062  48.4400  48.2405 0006196 276.7341 112.1741 14.81196086922948
ORBCOMM FM39            
1 33063U 08031D   25227.58910859  .00001198  00000+0  18571-3 0  9993
2 33063  48.4408  72.7695 0007103 250.6751 109.3396 14.79726799922597
